[
  {
    "COMMENT": "GENERATED VIA SPACETRACK.ORG API",
    "ORIGINATOR": "18 SPCS",
    "NORAD_CAT_ID": "43682",
    "OBJECT_NAME": "H-2A R/B",
    "OBJECT_TYPE": "ROCKET BODY",
    "CLASSIFICATION_TYPE": "U",
    "INTLDES": "18084L",
    "EPOCH": "2018-12-30 21:15:21",
    "EPOCH_MICROSECONDS": "255552",
    "MEAN_MOTION": "15.02498322",
    "ECCENTRICITY": "0.0058",
    "INCLINATION": "98.859",
    "RA_OF_ASC_NODE": "123.848",
    "ARG_OF_PERICENTER": "82.7034",
    "MEAN_ANOMALY": "278.0771",
    "EPHEMERIS_TYPE": "0",
    "ELEMENT_SET_NO": "999",
    "REV_AT_EPOCH": "936",
    "BSTAR": "0.000085787",
    "MEAN_MOTION_DOT": "0.00001098",
    "MEAN_MOTION_DDOT": "0",
    "FILE": "2386990",
    "TLE_LINE0": "0 H-2A R/B",
    "TLE_LINE1": "1 43682U 18084L   18364.88566268 +.00001098 +00000-0 +85787-4 0  9992",
    "TLE_LINE2": "2 43682 098.8590 123.8480 0058000 082.7034 278.0771 15.02498322009363",
    "OBJECT_ID": "2018-084L",
    "OBJECT_NUMBER": "43682",
    "SEMIMAJOR_AXIS": "6937.333",
    "PERIOD": "95.840",
    "APOGEE": "599.434",
    "PERIGEE": "518.961",
    "DECAYED": "0"
  },
  {
    "COMMENT": "GENERATED VIA SPACETRACK.ORG API",
    "ORIGINATOR": "18 SPCS",
    "NORAD_CAT_ID": "43682",
    "OBJECT_NAME": "H-2A R/B",
    "OBJECT_TYPE": "ROCKET BODY",
    "CLASSIFICATION_TYPE": "U",
    "INTLDES": "18084L",
    "EPOCH": "2018-12-31 10:02:32",
    "EPOCH_MICROSECONDS": "407296",
    "MEAN_MOTION": "15.02499709",
    "ECCENTRICITY": "0.005798",
    "INCLINATION": "98.859",
    "RA_OF_ASC_NODE": "124.4564",
    "ARG_OF_PERICENTER": "80.9266",
    "MEAN_ANOMALY": "279.8513",
    "EPHEMERIS_TYPE": "0",
    "ELEMENT_SET_NO": "999",
    "REV_AT_EPOCH": "944",
    "BSTAR": "0.000087195",
    "MEAN_MOTION_DOT": "0.00001118",
    "MEAN_MOTION_DDOT": "0",
    "FILE": "2387165",
    "TLE_LINE0": "0 H-2A R/B",
    "TLE_LINE1": "1 43682U 18084L   18365.41843064 +.00001118 +00000-0 +87195-4 0  9992",
    "TLE_LINE2": "2 43682 098.8590 124.4564 0057980 080.9266 279.8513 15.02499709009448",
    "OBJECT_ID": "2018-084L",
    "OBJECT_NUMBER": "43682",
    "SEMIMAJOR_AXIS": "6937.328",
    "PERIOD": "95.840",
    "APOGEE": "599.416",
    "PERIGEE": "518.971",
    "DECAYED": "0"
  },
  {
    "COMMENT": "GENERATED VIA SPACETRACK.ORG API",
    "ORIGINATOR": "18 SPCS",
    "NORAD_CAT_ID": "43682",
    "OBJECT_NAME": "H-2A R/B",
    "OBJECT_TYPE": "ROCKET BODY",
    "CLASSIFICATION_TYPE": "U",
    "INTLDES": "18084L",
    "EPOCH": "2018-12-31 21:13:49",
    "EPOCH_MICROSECONDS": "598112",
    "MEAN_MOTION": "15.02501219",
    "ECCENTRICITY": "0.0057972",
    "INCLINATION": "98.8596",
    "RA_OF_ASC_NODE": "124.9908",
    "ARG_OF_PERICENTER": "79.6213",
    "MEAN_ANOMALY": "281.1565",
    "EPHEMERIS_TYPE": "0",
    "ELEMENT_SET_NO": "999",
    "REV_AT_EPOCH": "951",
    "BSTAR": "0.000084577",
    "MEAN_MOTION_DOT": "0.00001082",
    "MEAN_MOTION_DDOT": "0",
    "FILE": "2387548",
    "TLE_LINE0": "0 H-2A R/B",
    "TLE_LINE1": "1 43682U 18084L   18365.88460183 +.00001082 +00000-0 +84577-4 0  9991",
    "TLE_LINE2": "2 43682 098.8596 124.9908 0057972 079.6213 281.1565 15.02501219009510",
    "OBJECT_ID": "2018-084L",
    "OBJECT_NUMBER": "43682",
    "SEMIMAJOR_AXIS": "6937.324",
    "PERIOD": "95.840",
    "APOGEE": "599.406",
    "PERIGEE": "518.972",
    "DECAYED": "0"
  },
  {
    "COMMENT": "GENERATED VIA SPACETRACK.ORG API",
    "ORIGINATOR": "18 SPCS",
    "NORAD_CAT_ID": "43682",
    "OBJECT_NAME": "H-2A R/B",
    "OBJECT_TYPE": "ROCKET BODY",
    "CLASSIFICATION_TYPE": "U",
    "INTLDES": "18084L",
    "EPOCH": "2019-01-01 05:13:18",
    "EPOCH_MICROSECONDS": "978528",
    "MEAN_MOTION": "15.02501762",
    "ECCENTRICITY": "0.0057981",
    "INCLINATION": "98.8595",
    "RA_OF_ASC_NODE": "125.3709",
    "ARG_OF_PERICENTER": "78.5497",
    "MEAN_ANOMALY": "282.2221",
    "EPHEMERIS_TYPE": "0",
    "ELEMENT_SET_NO": "999",
    "REV_AT_EPOCH": "956",
    "BSTAR": "0.000082821",
    "MEAN_MOTION_DOT": "0.00001057",
    "MEAN_MOTION_DDOT": "0",
    "FILE": "2387234",
    "TLE_LINE0": "0 H-2A R/B",
    "TLE_LINE1": "1 43682U 18084L   19001.21758077  .00001057  00000-0  82821-4 0  9990",
    "TLE_LINE2": "2 43682  98.8595 125.3709 0057981  78.5497 282.2221 15.02501762  9564",
    "OBJECT_ID": "2018-084L",
    "OBJECT_NUMBER": "43682",
    "SEMIMAJOR_AXIS": "6937.322",
    "PERIOD": "95.840",
    "APOGEE": "599.410",
    "PERIGEE": "518.964",
    "DECAYED": "0"
  },
  {
    "COMMENT": "GENERATED VIA SPACETRACK.ORG API",
    "ORIGINATOR": "18 SPCS",
    "NORAD_CAT_ID": "43682",
    "OBJECT_NAME": "H-2A R/B",
    "OBJECT_TYPE": "ROCKET BODY",
    "CLASSIFICATION_TYPE": "U",
    "INTLDES": "18084L",
    "EPOCH": "2019-01-01 10:01:00",
    "EPOCH_MICROSECONDS": "636672",
    "MEAN_MOTION": "15.02502103",
    "ECCENTRICITY": "0.0058007",
    "INCLINATION": "98.8595",
    "RA_OF_ASC_NODE": "125.5989",
    "ARG_OF_PERICENTER": "77.8801",
    "MEAN_ANOMALY": "282.8902",
    "EPHEMERIS_TYPE": "0",
    "ELEMENT_SET_NO": "999",
    "REV_AT_EPOCH": "959",
    "BSTAR": "0.000081958",
    "MEAN_MOTION_DOT": "0.00001045",
    "MEAN_MOTION_DDOT": "0",
    "FILE": "2387660",
    "TLE_LINE0": "0 H-2A R/B",
    "TLE_LINE1": "1 43682U 18084L   19001.41736848 +.00001045 +00000-0 +81958-4 0  9991",
    "TLE_LINE2": "2 43682 098.8595 125.5989 0058007 077.8801 282.8902 15.02502103009592",
    "OBJECT_ID": "2018-084L",
    "OBJECT_NUMBER": "43682",
    "SEMIMAJOR_AXIS": "6937.321",
    "PERIOD": "95.840",
    "APOGEE": "599.427",
    "PERIGEE": "518.945",
    "DECAYED": "0"
  },
  {
    "COMMENT": "GENERATED VIA SPACETRACK.ORG API",
    "ORIGINATOR": "18 SPCS",
    "NORAD_CAT_ID": "43682",
    "OBJECT_NAME": "H-2A R/B",
    "OBJECT_TYPE": "ROCKET BODY",
    "CLASSIFICATION_TYPE": "U",
    "INTLDES": "18084L",
    "EPOCH": "2019-01-01 21:12:17",
    "EPOCH_MICROSECONDS": "804160",
    "MEAN_MOTION": "15.02502902",
    "ECCENTRICITY": "0.0058002",
    "INCLINATION": "98.8596",
    "RA_OF_ASC_NODE": "126.1313",
    "ARG_OF_PERICENTER": "76.3459",
    "MEAN_ANOMALY": "284.4203",
    "EPHEMERIS_TYPE": "0",
    "ELEMENT_SET_NO": "999",
    "REV_AT_EPOCH": "966",
    "BSTAR": "0.00007987",
    "MEAN_MOTION_DOT": "0.00001017",
    "MEAN_MOTION_DDOT": "0",
    "FILE": "2388050",
    "TLE_LINE0": "0 H-2A R/B",
    "TLE_LINE1": "1 43682U 18084L   19001.88353940 +.00001017 +00000-0 +79870-4 0  9999",
    "TLE_LINE2": "2 43682 098.8596 126.1313 0058002 076.3459 284.4203 15.02502902009666",
    "OBJECT_ID": "2018-084L",
    "OBJECT_NUMBER": "43682",
    "SEMIMAJOR_AXIS": "6937.318",
    "PERIOD": "95.840",
    "APOGEE": "599.421",
    "PERIGEE": "518.946",
    "DECAYED": "0"
  },
  {
    "COMMENT": "GENERATED VIA SPACETRACK.ORG API",
    "ORIGINATOR": "18 SPCS",
    "NORAD_CAT_ID": "43682",
    "OBJECT_NAME": "H-2A R/B",
    "OBJECT_TYPE": "ROCKET BODY",
    "CLASSIFICATION_TYPE": "U",
    "INTLDES": "18084L",
    "EPOCH": "2019-01-02 09:59:28",
    "EPOCH_MICROSECONDS": "851360",
    "MEAN_MOTION": "15.0250366",
    "ECCENTRICITY": "0.0058027",
    "INCLINATION": "98.8595",
    "RA_OF_ASC_NODE": "126.7398",
    "ARG_OF_PERICENTER": "74.584",
    "MEAN_ANOMALY": "286.1775",
    "EPHEMERIS_TYPE": "0",
    "ELEMENT_SET_NO": "999",
    "REV_AT_EPOCH": "974",
    "BSTAR": "0.000076597",
    "MEAN_MOTION_DOT": "0.00000972",
    "MEAN_MOTION_DDOT": "0",
    "FILE": "2387914",
    "TLE_LINE0": "0 H-2A R/B",
    "TLE_LINE1": "1 43682U 18084L   19002.41630615  .00000972  00000-0  76597-4 0  9998",
    "TLE_LINE2": "2 43682  98.8595 126.7398 0058027  74.5840 286.1775 15.02503660  9749",
    "OBJECT_ID": "2018-084L",
    "OBJECT_NUMBER": "43682",
    "SEMIMAJOR_AXIS": "6937.316",
    "PERIOD": "95.840",
    "APOGEE": "599.436",
    "PERIGEE": "518.926",
    "DECAYED": "0"
  },
  {
    "COMMENT": "GENERATED VIA SPACETRACK.ORG API",
    "ORIGINATOR": "18 SPCS",
    "NORAD_CAT_ID": "43682",
    "OBJECT_NAME": "H-2A R/B",
    "OBJECT_TYPE": "ROCKET BODY",
    "CLASSIFICATION_TYPE": "U",
    "INTLDES": "18084L",
    "EPOCH": "2019-01-02 21:10:45",
    "EPOCH_MICROSECONDS": "956640",
    "MEAN_MOTION": "15.02504407",
    "ECCENTRICITY": "0.0058005",
    "INCLINATION": "98.8596",
    "RA_OF_ASC_NODE": "127.2722",
    "ARG_OF_PERICENTER": "73.0564",
    "MEAN_ANOMALY": "287.6997",
    "EPHEMERIS_TYPE": "0",
    "ELEMENT_SET_NO": "999",
    "REV_AT_EPOCH": "981",
    "BSTAR": "0.000074476",
    "MEAN_MOTION_DOT": "0.00000942",
    "MEAN_MOTION_DDOT": "0",
    "FILE": "2388254",
    "TLE_LINE0": "0 H-2A R/B",
    "TLE_LINE1": "1 43682U 18084L   19002.88247635 +.00000942 +00000-0 +74476-4 0  9996",
    "TLE_LINE2": "2 43682 098.8596 127.2722 0058005 073.0564 287.6997 15.02504407009810",
    "OBJECT_ID": "2018-084L",
    "OBJECT_NUMBER": "43682",
    "SEMIMAJOR_AXIS": "6937.314",
    "PERIOD": "95.840",
    "APOGEE": "599.419",
    "PERIGEE": "518.939",
    "DECAYED": "0"
  },
  {
    "COMMENT": "GENERATED VIA SPACETRACK.ORG API",
    "ORIGINATOR": "18 SPCS",
    "NORAD_CAT_ID": "43682",
    "OBJECT_NAME": "H-2A R/B",
    "OBJECT_TYPE": "ROCKET BODY",
    "CLASSIFICATION_TYPE": "U",
    "INTLDES": "18084L",
    "EPOCH": "2019-01-03 19:33:20",
    "EPOCH_MICROSECONDS": "119680",
    "MEAN_MOTION": "15.02505797",
    "ECCENTRICITY": "0.0058004",
    "INCLINATION": "98.8594",
    "RA_OF_ASC_NODE": "128.3365",
    "ARG_OF_PERICENTER": "70.0324",
    "MEAN_ANOMALY": "290.7128",
    "EPHEMERIS_TYPE": "0",
    "ELEMENT_SET_NO": "999",
    "REV_AT_EPOCH": "995",
    "BSTAR": "0.000070257",
    "MEAN_MOTION_DOT": "0.00000884",
    "MEAN_MOTION_DDOT": "0",
    "FILE": "2388619",
    "TLE_LINE0": "0 H-2A R/B",
    "TLE_LINE1": "1 43682U 18084L   19003.81481620  .00000884  00000-0  70257-4 0  9992",
    "TLE_LINE2": "2 43682  98.8594 128.3365 0058004  70.0324 290.7128 15.02505797  9952",
    "OBJECT_ID": "2018-084L",
    "OBJECT_NUMBER": "43682",
    "SEMIMAJOR_AXIS": "6937.309",
    "PERIOD": "95.840",
    "APOGEE": "599.414",
    "PERIGEE": "518.935",
    "DECAYED": "0"
  }
]